ORBCOMM FM02            
1 23546U 95017B   25048.35445261  .00019035  00000+0  20760-2 0  9995
2 23546  69.9669  32.1412 0003670 195.6059 164.4982 14.87954989594311
ORBCOMM FM10            
1 25113U 97084B   25048.16698707  .00003224  00000+0  95807-3 0  9995
2 25113  45.0136 225.9258 0003529 317.7692  42.2887 14.44887530599154
ORBCOMM FM11            
1 25114U 97084C   25048.56601816  .00003249  00000+0  96959-3 0  9991
2 25114  45.0120 224.4330 0004322 323.2876  36.7678 14.44659432424174
ORBCOMM FM12            
1 25115U 97084D   25048.53021560  .00003705  00000+0  10998-2 0  9996
2 25115  45.0127 224.3667 0003310 318.4188  41.6411 14.44668009423968
ORBCOMM FM09            
1 25116U 97084E   25048.55294364  .00003281  00000+0  98077-3 0  9997
2 25116  45.0131 225.0796 0004828 306.0508  53.9895 14.44564779424174
